#aV2022  2 16  0  0  0.00000000     288 DD+AD WGS84 FIT  NGA
## 2197 259200.00000000   300.00000000 59626 0.0000000000000
+   32     1  2  3  4  5  6  7  8  9 10 11 12 13 14 15 16 17
+         18 19 20 21 22 23 24 25 26 27 28 29 30 31 32  0  0
+          0  0  0  0  0  0  0  0  0  0  0  0  0  0  0  0  0
+          0  0  0  0  0  0  0  0  0  0  0  0  0  0  0  0  0
+          0  0  0  0  0  0  0  0  0  0  0  0  0  0  0  0  0
++         2  2  2  2  2  2  2  2  2  2  2  2  2  2  2  2  2
++         2  2  2  2  2  2  2  2  2  2  2  2  2  2  2  0  0
++         0  0  0  0  0  0  0  0  0  0  0  0  0  0  0  0  0
++         0  0  0  0  0  0  0  0  0  0  0  0  0  0  0  0  0
++         0  0  0  0  0  0  0  0  0  0  0  0  0  0  0  0  0
%c cc cc ccc ccc cccc cccc cccc cccc ccccc ccccc ccccc ccccc
%c cc cc ccc ccc cccc cccc cccc cccc ccccc ccccc ccccc ccccc
%f  0.0000000  0.000000000  0.00000000000  0.000000000000000
%f  0.0000000  0.000000000  0.00000000000  0.000000000000000
%i    0    0    0    0      0      0      0      0         0
%i    0    0    0    0      0      0      0      0         0
/*      NGA, ST. LOUIS,MO.                                  
/*   EPHEMERIS COMPUTED FROM 2 DAYS OF DATA                 
/*   EPOCHA v7 SMOOTHER                                     
/*   G2139 IERS2010 SATIGS SATAPC                           
*  2022  2 16 16  0  0.00000000
P  1 -15587.082254 -13389.926435 -17302.008603    429.965251                    
V  1  21196.570735   1564.342289 -20304.419083     -0.094710                    
P  2  -7621.909823  14658.514500  21486.069889   -650.969241                    
V  2 -25689.609618  -1323.202789  -8350.024850     -0.006765                    
P  3 -13125.280382 -22769.801778   4122.222076   -124.180054                    
V  3    -28.376150  -5823.856603 -31372.388377     -0.172870                    
P  4  -6795.026912 -14934.238631  20874.311629   -189.189803                    
V  4  17020.526436 -20343.001309  -9095.074768      0.022660                    
P  5   3412.002115  23929.725132  10671.532329    -71.645006                    
V  5  -8478.301573 -11262.825070  27697.726456     -0.013368                    
P  6 -22324.634520   6237.511060  13105.865940    203.469260                    
V  6 -16181.344628  -3367.742608 -26026.563382      0.119555                    
P  7 -25830.326005  -6062.940011   4351.428058    310.708166                    
V  7   5250.529133  -2039.316818  30579.066137      0.026802                    
P  8   2014.506081 -21426.037254 -15356.896496    -56.427087                    
V  8  12972.075646 -14828.870363  22768.951178     -0.014653                    
P  9 -15498.488432  -3972.951633  21134.491642   -353.906086                    
V  9  15005.437426 -22474.838629   6725.139724      0.016375                    
P 10  15326.243149  -1652.098687 -21521.136642   -322.157381                    
V 10  10925.007724  25335.683993   5512.586482     -0.105325                    
P 11  -9509.407925  13249.485017  20959.818350    -86.982693                    
V 11 -26139.567036  -5080.187648  -8658.997427      0.121977                    
P 12   9787.670354  24721.680994   1260.679625   -171.938911                    
V 12  -1630.930333   2618.074461 -31821.466908     -0.057072                    
P 13 -10940.042406  21791.245025 -10485.525948    262.710181                    
V 13 -10777.174728   7856.179463  28136.544966      0.062046                    
P 14 -15917.033486    777.238369 -21262.554774    -84.580551                    
V 14  -9394.914111 -25320.539852   6040.433973     -0.044671                    
P 15   1456.098432  21510.897289 -15709.240879    -83.366374                    
V 15 -11753.359463  15712.958487  21293.659016      0.028997                    
P 16   2195.398966 -22376.282434  13491.300370   -470.209675                    
V 16   7937.584322  16049.969087  25293.080434     -0.048551                    
P 17 -20234.112700  10452.109168 -13274.468732    575.893424                    
V 17   9767.140062 -14666.972917 -25559.760398      0.049548                    
P 18  25720.445280   5797.225560   3632.543252    238.877685                    
V 18  -4864.057538   1792.572917  31460.514937     -0.081273                    
P 19 -20416.318474  15392.315867  -7086.672941    119.731512                    
V 19   4187.670530  -7921.774324 -30564.413992      0.049915                    
P 20  -3296.506603  19259.691292  18098.286767    516.676032                    
V 20 -13832.903074 -18398.732567  16810.770736     -0.001784                    
P 21  -6046.823824 -14697.260960 -20707.832323    158.133081                    
V 21  27764.554542    290.119325  -7436.239339      0.006235                    
P 22  18832.630716 -18207.868448  -3328.976756    214.492942                    
V 22   -865.369453   5519.333992 -31522.452975      0.056714                    
P 23  17778.371445  10074.851866 -17029.369036      0.781162                    
V 23   7816.729477  20142.984013  19997.873228     -0.035061                    
P 24  11817.855151  14582.919741 -19232.814042    274.195799                    
V 24 -23796.800593    645.447685 -13941.075996     -0.020228                    
P 25  16698.307640  16952.863632  11802.906443    286.383064                    
V 25   4146.390882  14943.303047 -26412.389943      0.053563                    
P 26  10145.163800 -13255.899340  20516.381418    183.740902                    
V 26  12924.128941  23034.227974   8765.419474      0.031962                    
P 27  11350.932384 -22955.234570  -6405.661769    121.620160                    
V 27   6786.219790  -4898.404062  30894.671621      0.160486                    
P 28 -11973.713712   9833.377601 -21085.210751    399.160974                    
V 28  -9325.619543 -26342.286111  -6604.680657     -0.081590                    
P 29  13072.531527   7221.077064  21923.461618   -480.946002                    
V 29 -17910.252421  21362.453577   3581.272017     -0.046843                    
P 30 -26232.969261    267.216461  -4844.515500   -513.740055                    
V 30  -5751.598927  -4073.288056  30229.513408     -0.023172                    
P 31  21097.473225  -7555.051516  14485.071036   -165.009598                    
V 31  18023.047461   4360.488064 -23308.730252     -0.017664                    
P 32  19476.181610 -14414.656112 -10529.340524    -68.795974                    
V 32  -5758.953876  12644.940087 -27812.614832     -0.067861                    
EOF
